[{"OBJECT_NAME":"STARLINK-35787","OBJECT_ID":"2025-288V","EPOCH":"2026-03-09T06:02:08.980512","MEAN_MOTION":15.27565968,"ECCENTRICITY":0.00013355,"INCLINATION":43.0028,"RA_OF_ASC_NODE":25.6444,"ARG_OF_PERICENTER":274.6201,"MEAN_ANOMALY":85.4498,"EPHEMERIS_TYPE":0,"CLASSIFICATION_TYPE":"U","NORAD_CAT_ID":66978,"ELEMENT_SET_NO":999,"REV_AT_EPOCH":1522,"BSTAR":0.00089155583,"MEAN_MOTION_DOT":0.00024342,"MEAN_MOTION_DDOT":0},{"OBJECT_NAME":"KUIPER-00274","OBJECT_ID":"2026-030AE","EPOCH":"2026-03-09T22:00:01.999584","MEAN_MOTION":15.29896925,"ECCENTRICITY":0.00182929,"INCLINATION":51.8831,"RA_OF_ASC_NODE":218.6923,"ARG_OF_PERICENTER":71.2033,"MEAN_ANOMALY":115.2248,"EPHEMERIS_TYPE":0,"CLASSIFICATION_TYPE":"U","NORAD_CAT_ID":67792,"ELEMENT_SET_NO":999,"REV_AT_EPOCH":410,"BSTAR":0.0017989756,"MEAN_MOTION_DOT":0.00053102,"MEAN_MOTION_DDOT":0}]
